2020-061E               
1 46276U 20061E   20253.48065608  .00000322  00000-0  20132-4 0  9992
2 46276  97.4643 326.4668 0000453 143.7371 216.3893 15.16035549   969
2020-061F               
1 46277U 20061F   20253.21650221  .00000253  00000-0  16563-4 0  9991
2 46277  97.4642 326.2074 0000282 149.7180 210.4069 15.16069420   923
GHGSAT-C1               
1 46278U 20061G   20253.21553701  .00000393  00000-0  23673-4 0  9992
2 46278  97.4643 326.2086 0001739   9.0512 351.0752 15.16311132   924
STARLINK-1734           
1 46325U 20062A   20253.30208461 -.00643142  11731-4 -36944-3 0  9994
2 46325  52.9928  41.2322 0041584  64.6909 296.0171 16.15945368  2182
CZ-2F R/B               
1 46390U 20063B   20253.23558603  .00010937  00000-0  67681-4 0  9999
2 46390  50.2045  40.0695 0015807 315.6843  44.2871 15.77518190   780
CZ-2F DEB               
1 46391U 20063C   20252.97524886  .00063289  00000-0  10971-2 0  9992
2 46391  49.9029  43.0188 0159867 164.4089 196.1844 15.37242808   711
CZ-2F DEB               
1 46392U 20063D   20252.81484485  .00080722  00000-0  11638-2 0  9998
2 46392  49.8676  43.4884 0116489 170.1718 190.1550 15.47658049   696
CZ-2F DEB               
1 46393U 20063E   20252.96593624  .00139070  00000-0  11509-2 0  9999
2 46393  50.4194  41.9917 0106924 223.4398 135.8113 15.62037376   556
CZ-2F DEB               
1 46394U 20063F   20252.92315623  .00098914  00000-0  10856-2 0  9992
2 46394  50.4633  42.4515 0113865 205.6064 153.9505 15.54698071   584
GAOFEN 11-2             
1 46396U 20064A   20253.20266983 -.00000597  18911-5  00000+0 0  9994
2 46396  97.3306   5.3398 0326550 164.6036 289.2895 15.31798244   303
CZ-4B R/B               
1 46397U 20064B   20253.15718580 -.00000634  20067-5  00000+0 0  9991
2 46397  97.2642   5.3562 0197360 144.2573 305.9646 15.68182580   304
